{
  "type": "FeatureCollection",
  "generator": "overpass-turbo",
  "copyright": "The data included in this document is from www.openstreetmap.org. The data is made available under ODbL.",
  "timestamp": "2025-05-20T13:59:00Z",
  "features": [
    {
      "type": "Feature",
      "properties": {
        "@id": "relation/9356511",
        "name": "Estives",
        "piste:difficulty": "novice",
        "piste:type": "downhill",
        "route": "piste",
        "type": "route"
      },
      "geometry": {
        "type": "MultiLineString",
        "coordinates": [
          [
            [
              0.5767398,
              42.7634792
            ],
            [
              0.576703,
              42.763472
            ],
            [
              0.5766901,
              42.7634832
            ],
            [
              0.5766918,
              42.7641869
            ],
            [
              0.5766715,
              42.7643667
            ],
            [
              0.5766214,
              42.7645322
            ],
            [
              0.5763288,
              42.7650541
            ],
            [
              0.5760318,
              42.7656604
            ],
            [
              0.5759937,
              42.7659204
            ],
            [
              0.5760204,
              42.766185
            ],
            [
              0.5760668,
              42.7662599
            ],
            [
              0.5761184,
              42.766299
            ],
            [
              0.5762706,
              42.7663916
            ],
            [
              0.5764017,
              42.7664412
            ],
            [
              0.5765442,
              42.7664637
            ],
            [
              0.5768418,
              42.76647
            ],
            [
              0.5770175,
              42.7664426
            ],
            [
              0.5770983,
              42.7664047
            ],
            [
              0.5776841,
              42.7655786
            ],
            [
              0.5778641,
              42.7652148
            ],
            [
              0.5780665,
              42.7649086
            ],
            [
              0.5783414,
              42.7645563
            ],
            [
              0.5789103,
              42.7638638
            ],
            [
              0.578987,
              42.7636559
            ],
            [
              0.5790836,
              42.763522
            ],
            [
              0.5792847,
              42.763394
            ],
            [
              0.5796157,
              42.7630701
            ],
            [
              0.5805775,
              42.7623897
            ],
            [
              0.5809557,
              42.7621691
            ],
            [
              0.5812588,
              42.7620077
            ],
            [
              0.5821171,
              42.7616827
            ],
            [
              0.5825195,
              42.761474
            ],
            [
              0.5828601,
              42.7612436
            ],
            [
              0.5829862,
              42.7611451
            ],
            [
              0.5831873,
              42.7610093
            ],
            [
              0.5833697,
              42.7609778
            ],
            [
              0.583536,
              42.7610053
            ],
            [
              0.5838338,
              42.7611432
            ],
            [
              0.5840752,
              42.7612456
            ],
            [
              0.5842736,
              42.7612948
            ],
            [
              0.5844936,
              42.7613421
            ],
            [
              0.5848771,
              42.7613795
            ],
            [
              0.5851971,
              42.7613721
            ],
            [
              0.5854873,
              42.7613535
            ],
            [
              0.5857462,
              42.7612785
            ],
            [
              0.5859976,
              42.7611841
            ],
            [
              0.5861967,
              42.7610142
            ],
            [
              0.5862381,
              42.7609963
            ],
            [
              0.5863115,
              42.7609884
            ],
            [
              0.5863974,
              42.7609999
            ],
            [
              0.5864145,
              42.7611086
            ],
            [
              0.5863964,
              42.7612128
            ],
            [
              0.5863204,
              42.7613608
            ],
            [
              0.5860734,
              42.7615488
            ],
            [
              0.5853385,
              42.7623365
            ],
            [
              0.5850702,
              42.7626772
            ],
            [
              0.5849509,
              42.7629056
            ],
            [
              0.5848744,
              42.7631301
            ],
            [
              0.5848503,
              42.7633822
            ],
            [
              0.5848342,
              42.7635555
            ],
            [
              0.584802,
              42.7637839
            ],
            [
              0.5847669,
              42.7640492
            ]
          ],
          [
            [
              0.5855667,
              42.7651911
            ],
            [
              0.585567,
              42.7652028
            ],
            [
              0.5855642,
              42.7652124
            ],
            [
              0.5855574,
              42.7652228
            ],
            [
              0.5855501,
              42.7652287
            ],
            [
              0.5855425,
              42.7652331
            ],
            [
              0.5855333,
              42.7652368
            ],
            [
              0.5855236,
              42.7652388
            ],
            [
              0.5855118,
              42.7652381
            ],
            [
              0.5853506,
              42.7652058
            ]
          ]
        ]
      },
      "id": "relation/9356511"
    }
  ]
}